{
  "type": "FeatureCollection",
  "features": [
    {
      "type": "Feature",
      "properties": {
        "norad_id": 33376,
        "name": "GALAXY 19 (G-19)",
        "group": "intelsat",
        "lat": -0.017374034472705236,
        "lon": -177.3365506921381,
        "alt_km": 35783.98521391755,
        "timestamp": "2025-12-02T13:52:16.943172+00:00",
        "meta_object_name": "GALAXY 19 (G-19)",
        "meta_object_id": "2008-045A",
        "meta_epoch": "2025-12-02T06:28:29.537184",
        "meta_mean_motion": 1.00270185,
        "meta_eccentricity": 0.00034373,
        "meta_inclination": 0.0188,
        "meta_ra_of_asc_node": 350.5737,
        "meta_arg_of_pericenter": 272.1238,
        "meta_mean_anomaly": 168.7835,
        "meta_ephemeris_type": 0,
        "meta_classification_type": "U",
        "meta_norad_cat_id": 33376,
        "meta_element_set_no": 999,
        "meta_rev_at_epoch": 6292,
        "meta_bstar": 0,
        "meta_mean_motion_dot": 0,
        "meta_mean_motion_ddot": 0,
        "tle_line1": "1 33376U 08045A   25336.26978631  .00000000  00000+0  00000+0 0  9998",
        "tle_line2": "2 33376   0.0188 350.5737 0003437 272.1238 168.7835  1.00270185 62924"
      },
      "geometry": {
        "type": "Point",
        "coordinates": [
          -177.3365506921381,
          -0.017374034472705236
        ]
      }
    },
    {
      "type": "Feature",
      "properties": {
        "norad_id": 35493,
        "name": "FM-5",
        "group": "intelsat",
        "lat": -0.045492709138299024,
        "lon": -166.39840413658203,
        "alt_km": 35781.35022346623,
        "timestamp": "2025-12-02T13:52:16.943183+00:00",
        "meta_object_name": "FM-5",
        "meta_object_id": "2009-034A",
        "meta_epoch": "2025-12-02T03:49:56.186112",
        "meta_mean_motion": 1.00271359,
        "meta_eccentricity": 0.00013625,
        "meta_inclination": 0.0257,
        "meta_ra_of_asc_node": 281.1373,
        "meta_arg_of_pericenter": 241.1286,
        "meta_mean_anomaly": 240.3577,
        "meta_ephemeris_type": 0,
        "meta_classification_type": "U",
        "meta_norad_cat_id": 35493,
        "meta_element_set_no": 999,
        "meta_rev_at_epoch": 4466,
        "meta_bstar": 0,
        "meta_mean_motion_dot": -1.79e-06,
        "meta_mean_motion_ddot": 0,
        "tle_line1": "1 35493U 09034A   25336.15967808 -.00000179  00000+0  00000+0 0  9999",
        "tle_line2": "2 35493   0.0257 281.1373 0001362 241.1286 240.3577  1.00271359 44667"
      },
      "geometry": {
        "type": "Point",
        "coordinates": [
          -166.39840413658203,
          -0.045492709138299024
        ]
      }
    },
    {
      "type": "Feature",
      "properties": {
        "norad_id": 36097,
        "name": "INTELSAT 14 (IS-14)",
        "group": "intelsat",
        "lat": -0.03953304544645625,
        "lon": -125.2800289404459,
        "alt_km": 35775.44651742068,
        "timestamp": "2025-12-02T13:52:16.943195+00:00",
        "meta_object_name": "INTELSAT 14 (IS-14)",
        "meta_object_id": "2009-064A",
        "meta_epoch": "2025-12-02T06:43:20.614944",
        "meta_mean_motion": 1.00272173,
        "meta_eccentricity": 0.00026067,
        "meta_inclination": 0.019,
        "meta_ra_of_asc_node": 299.095,
        "meta_arg_of_pericenter": 312.5685,
        "meta_mean_anomaly": 235.5647,
        "meta_ephemeris_type": 0,
        "meta_classification_type": "U",
        "meta_norad_cat_id": 36097,
        "meta_element_set_no": 999,
        "meta_rev_at_epoch": 5863,
        "meta_bstar": 0,
        "meta_mean_motion_dot": -2.52e-06,
        "meta_mean_motion_ddot": 0,
        "tle_line1": "1 36097U 09064A   25336.28009971 -.00000252  00000+0  00000+0 0  9997",
        "tle_line2": "2 36097   0.0190 299.0950 0002606 312.5685 235.5647  1.00272173 58632"
      },
      "geometry": {
        "type": "Point",
        "coordinates": [
          -125.2800289404459,
          -0.03953304544645625
        ]
      }
    },
    {
      "type": "Feature",
      "properties": {
        "norad_id": 36106,
        "name": "INTELSAT 15 (IS-15)",
        "group": "intelsat",
        "lat": 0.02856720679443463,
        "lon": 4.913139079675743,
        "alt_km": 35790.46792307442,
        "timestamp": "2025-12-02T13:52:16.943207+00:00",
        "meta_object_name": "INTELSAT 15 (IS-15)",
        "meta_object_id": "2009-067A",
        "meta_epoch": "2025-12-02T02:12:14.613984",
        "meta_mean_motion": 1.00270671,
        "meta_eccentricity": 0.00023712,
        "meta_inclination": 0.0103,
        "meta_ra_of_asc_node": 303.6391,
        "meta_arg_of_pericenter": 307.5381,
        "meta_mean_anomaly": 298.2522,
        "meta_ephemeris_type": 0,
        "meta_classification_type": "U",
        "meta_norad_cat_id": 36106,
        "meta_element_set_no": 999,
        "meta_rev_at_epoch": 3925,
        "meta_bstar": 0,
        "meta_mean_motion_dot": -1.64e-06,
        "meta_mean_motion_ddot": 0,
        "tle_line1": "1 36106U 09067A   25336.09183581 -.00000164  00000+0  00000+0 0  9992",
        "tle_line2": "2 36106   0.0103 303.6391 0002371 307.5381 298.2522  1.00270671 39250"
      },
      "geometry": {
        "type": "Point",
        "coordinates": [
          4.913139079675743,
          0.02856720679443463
        ]
      }
    },
    {
      "type": "Feature",
      "properties": {
        "norad_id": 36131,
        "name": "DIRECTV 12",
        "group": "intelsat",
        "lat": 0.004370130098374105,
        "lon": 177.00876099860264,
        "alt_km": 35786.7159644234,
        "timestamp": "2025-12-02T13:52:16.943219+00:00",
        "meta_object_name": "DIRECTV 12",
        "meta_object_id": "2009-075A",
        "meta_epoch": "2025-12-02T06:26:52.192032",
        "meta_mean_motion": 1.00269396,
        "meta_eccentricity": 8.5e-07,
        "meta_inclination": 0.01,
        "meta_ra_of_asc_node": 82.5402,
        "meta_arg_of_pericenter": 107.3898,
        "meta_mean_anomaly": 235.4515,
        "meta_ephemeris_type": 0,
        "meta_classification_type": "U",
        "meta_norad_cat_id": 36131,
        "meta_element_set_no": 999,
        "meta_rev_at_epoch": 4457,
        "meta_bstar": 0,
        "meta_mean_motion_dot": -8.2e-07,
        "meta_mean_motion_ddot": 0,
        "tle_line1": "1 36131U 09075A   25336.26865963 -.00000082  00000+0  00000+0 0  9998",
        "tle_line2": "2 36131   0.0100  82.5402 0000008 107.3898 235.4515  1.00269396 44573"
      },
      "geometry": {
        "type": "Point",
        "coordinates": [
          177.00876099860264,
          0.004370130098374105
        ]
      }
    },
    {
      "type": "Feature",
      "properties": {
        "norad_id": 36397,
        "name": "INTELSAT 16 (IS-16)",
        "group": "intelsat",
        "lat": -0.03758564568075526,
        "lon": -156.49340072990523,
        "alt_km": 35780.28206139757,
        "timestamp": "2025-12-02T13:52:16.943230+00:00",
        "meta_object_name": "INTELSAT 16 (IS-16)",
        "meta_object_id": "2010-006A",
        "meta_epoch": "2025-12-02T06:34:28.962912",
        "meta_mean_motion": 1.00270161,
        "meta_eccentricity": 0.00023189,
        "meta_inclination": 0.0149,
        "meta_ra_of_asc_node": 305.0427,
        "meta_arg_of_pericenter": 308.7135,
        "meta_mean_anomaly": 200.0513,
        "meta_ephemeris_type": 0,
        "meta_classification_type": "U",
        "meta_norad_cat_id": 36397,
        "meta_element_set_no": 999,
        "meta_rev_at_epoch": 5768,
        "meta_bstar": 0,
        "meta_mean_motion_dot": -2.24e-06,
        "meta_mean_motion_ddot": 0,
        "tle_line1": "1 36397U 10006A   25336.27394633 -.00000224  00000+0  00000+0 0  9998",
        "tle_line2": "2 36397   0.0149 305.0427 0002318 308.7135 200.0513  1.00270161 57681"
      },
      "geometry": {
        "type": "Point",
        "coordinates": [
          -156.49340072990523,
          -0.03758564568075526
        ]
      }
    },
    {
      "type": "Feature",
      "properties": {
        "norad_id": 37185,
        "name": "XM-5",
        "group": "intelsat",
        "lat": -0.07495196628407648,
        "lon": 164.55125225978065,
        "alt_km": 35779.263789992554,
        "timestamp": "2025-12-02T13:52:16.943242+00:00",
        "meta_object_name": "XM-5",
        "meta_object_id": "2010-053A",
        "meta_epoch": "2025-12-02T04:40:32.377152",
        "meta_mean_motion": 1.00272019,
        "meta_eccentricity": 0.00016702,
        "meta_inclination": 0.0655,
        "meta_ra_of_asc_node": 272.5794,
        "meta_arg_of_pericenter": 236.5046,
        "meta_mean_anomaly": 237.1767,
        "meta_ephemeris_type": 0,
        "meta_classification_type": "U",
        "meta_norad_cat_id": 37185,
        "meta_element_set_no": 999,
        "meta_rev_at_epoch": 5550,
        "meta_bstar": 0,
        "meta_mean_motion_dot": -2e-08,
        "meta_mean_motion_ddot": 0,
        "tle_line1": "1 37185U 10053A   25336.19481918 -.00000002  00000+0  00000+0 0  9994",
        "tle_line2": "2 37185   0.0655 272.5794 0001670 236.5046 237.1767  1.00272019 55508"
      },
      "geometry": {
        "type": "Point",
        "coordinates": [
          164.55125225978065,
          -0.07495196628407648
        ]
      }
    }
  ]
}